{"type": "FeatureCollection", "features": [ {"type": "Feature", "properties": {"norad_id": 40701, "name": "GAOFEN-8", "group": "resource", "lat": 30.275959067036563, "lon": 169.1920323884584, "alt_km": 446.5332367212077, "timestamp": "2025-12-21T03:56:50.511806+00:00", "meta": {"OBJECT_NAME": "GAOFEN-8", "OBJECT_ID": "2015-030A", "EPOCH": "2025-12-20T20:00:41.844096", "MEAN_MOTION": 15.3880868, "ECCENTRICITY": 0.0011925, "INCLINATION": 97.6904, "RA_OF_ASC_NODE": 173.3699, "ARG_OF_PERICENTER": 110.7189, "MEAN_ANOMALY": 249.5335, "EPHEMERIS_TYPE": 0, "CLASSIFICATION_TYPE": "U", "NORAD_CAT_ID": 40701, "ELEMENT_SET_NO": 999, "REV_AT_EPOCH": 58395, "BSTAR": 0.0004363, "MEAN_MOTION_DOT": 0.0001671, "MEAN_MOTION_DDOT": 0}, "tle": {"line1": "1 40701U 15030A   25354.83381764  .00016710  00000+0  43630-3 0  9993", "line2": "2 40701  97.6904 173.3699 0011925 110.7189 249.5335 15.38808680583950"}}, "geometry": {"type": "Point", "coordinates": [169.1920323884584, 30.275959067036563]}}, {"type": "Feature", "properties": {"norad_id": 40718, "name": "CARBONITE 1 (CBNT-1)", "group": "resource", "lat": 67.07836502083497, "lon": 157.33055036581237, "alt_km": 613.1758730345018, "timestamp": "2025-12-21T03:56:50.511815+00:00", "meta": {"OBJECT_NAME": "CARBONITE 1 (CBNT-1)", "OBJECT_ID": "2015-032D", "EPOCH": "2025-12-20T19:32:31.320096", "MEAN_MOTION": 14.82781651, "ECCENTRICITY": 0.0014986, "INCLINATION": 97.6395, "RA_OF_ASC_NODE": 175.5023, "ARG_OF_PERICENTER": 154.9322, "MEAN_ANOMALY": 205.2623, "EPHEMERIS_TYPE": 0, "CLASSIFICATION_TYPE": "U", "NORAD_CAT_ID": 40718, "ELEMENT_SET_NO": 999, "REV_AT_EPOCH": 56290, "BSTAR": 0.00030847, "MEAN_MOTION_DOT": 2.448e-05, "MEAN_MOTION_DDOT": 0}, "tle": {"line1": "1 40718U 15032D   25354.81425139  .00002448  00000+0  30847-3 0  9995", "line2": "2 40718  97.6395 175.5023 0014986 154.9322 205.2623 14.82781651562903"}}, "geometry": {"type": "Point", "coordinates": [157.33055036581237, 67.07836502083497]}}, {"type": "Feature", "properties": {"norad_id": 40878, "name": "YAOGAN-27", "group": "resource", "lat": 59.40495950702386, "lon": -178.0521217700601, "alt_km": 1198.7743014655343, "timestamp": "2025-12-21T03:56:50.511824+00:00", "meta": {"OBJECT_NAME": "YAOGAN-27", "OBJECT_ID": "2015-040A", "EPOCH": "2025-12-20T21:52:14.488320", "MEAN_MOTION": 13.16059226, "ECCENTRICITY": 0.0007606, "INCLINATION": 100.1006, "RA_OF_ASC_NODE": 344.1616, "ARG_OF_PERICENTER": 266.4612, "MEAN_ANOMALY": 93.5632, "EPHEMERIS_TYPE": 0, "CLASSIFICATION_TYPE": "U", "NORAD_CAT_ID": 40878, "ELEMENT_SET_NO": 999, "REV_AT_EPOCH": 49421, "BSTAR": -0.0013271, "MEAN_MOTION_DOT": -5.46e-06, "MEAN_MOTION_DDOT": 0}, "tle": {"line1": "1 40878U 15040A   25354.91127880 -.00000546  00000+0 -13271-2 0  9994", "line2": "2 40878 100.1006 344.1616 0007606 266.4612  93.5632 13.16059226494211"}}, "geometry": {"type": "Point", "coordinates": [-178.0521217700601, 59.40495950702386]}}, {"type": "Feature", "properties": {"norad_id": 40894, "name": "GAOFEN-9 01", "group": "resource", "lat": -20.762778759683137, "lon": 36.677853818483385, "alt_km": 609.7676822472131, "timestamp": "2025-12-21T03:56:50.511833+00:00", "meta": {"OBJECT_NAME": "GAOFEN-9 01", "OBJECT_ID": "2015-047A", "EPOCH": "2025-12-20T19:56:29.355648", "MEAN_MOTION": 14.82440115, "ECCENTRICITY": 0.0027735, "INCLINATION": 97.6532, "RA_OF_ASC_NODE": 33.4366, "ARG_OF_PERICENTER": 8.2757, "MEAN_ANOMALY": 351.8909, "EPHEMERIS_TYPE": 0, "CLASSIFICATION_TYPE": "U", "NORAD_CAT_ID": 40894, "ELEMENT_SET_NO": 999, "REV_AT_EPOCH": 55376, "BSTAR": 0.0001003, "MEAN_MOTION_DOT": 7.58e-06, "MEAN_MOTION_DDOT": 0}, "tle": {"line1": "1 40894U 15047A   25354.83089532  .00000758  00000+0  10030-3 0  9995", "line2": "2 40894  97.6532  33.4366 0027735   8.2757 351.8909 14.82440115553768"}}, "geometry": {"type": "Point", "coordinates": [36.677853818483385, -20.762778759683137]}}, {"type": "Feature", "properties": {"norad_id": 41026, "name": "YAOGAN-28", "group": "resource", "lat": -37.76869821062949, "lon": 138.40494178881352, "alt_km": 505.19437691707935, "timestamp": "2025-12-21T03:56:50.511842+00:00", "meta": {"OBJECT_NAME": "YAOGAN-28", "OBJECT_ID": "2015-064A", "EPOCH": "2025-12-20T20:14:16.346400", "MEAN_MOTION": 15.24473677, "ECCENTRICITY": 0.0012626, "INCLINATION": 97.2812, "RA_OF_ASC_NODE": 132.4074, "ARG_OF_PERICENTER": 100.2456, "MEAN_ANOMALY": 260.0206, "EPHEMERIS_TYPE": 0, "CLASSIFICATION_TYPE": "U", "NORAD_CAT_ID": 41026, "ELEMENT_SET_NO": 999, "REV_AT_EPOCH": 56348, "BSTAR": 0.00021498, "MEAN_MOTION_DOT": 5.222e-05, "MEAN_MOTION_DDOT": 0}, "tle": {"line1": "1 41026U 15064A   25354.84324475  .00005222  00000+0  21498-3 0  9992", "line2": "2 41026  97.2812 132.4074 0012626 100.2456 260.0206 15.24473677563488"}}, "geometry": {"type": "Point", "coordinates": [138.40494178881352, -37.76869821062949]}}, {"type": "Feature", "properties": {"norad_id": 41038, "name": "YAOGAN-29", "group": "resource", "lat": -60.22607292136522, "lon": -175.90585453697022, "alt_km": 627.2486859891824, "timestamp": "2025-12-21T03:56:50.511851+00:00", "meta": {"OBJECT_NAME": "YAOGAN-29", "OBJECT_ID": "2015-069A", "EPOCH": "2025-12-20T20:23:06.979776", "MEAN_MOTION": 14.82891364, "ECCENTRICITY": 5.21e-05, "INCLINATION": 98.021, "RA_OF_ASC_NODE": 18.0472, "ARG_OF_PERICENTER": 170.4816, "MEAN_ANOMALY": 189.6407, "EPHEMERIS_TYPE": 0, "CLASSIFICATION_TYPE": "U", "NORAD_CAT_ID": 41038, "ELEMENT_SET_NO": 999, "REV_AT_EPOCH": 54419, "BSTAR": 4.5527e-05, "MEAN_MOTION_DOT": 3.15e-06, "MEAN_MOTION_DDOT": 0}, "tle": {"line1": "1 41038U 15069A   25354.84938634  .00000315  00000+0  45527-4 0  9996", "line2": "2 41038  98.0210  18.0472 0000521 170.4816 189.6407 14.82891364544199"}}, "geometry": {"type": "Point", "coordinates": [-175.90585453697022, -60.22607292136522]}}, {"type": "Feature", "properties": {"norad_id": 41167, "name": "KENT RIDGE 1", "group": "resource", "lat": 1.5528357177844136, "lon": 154.44739293508707, "alt_km": 500.347761264612, "timestamp": "2025-12-21T03:56:50.511860+00:00", "meta": {"OBJECT_NAME": "KENT RIDGE 1", "OBJECT_ID": "2015-077B", "EPOCH": "2025-12-20T18:28:55.721568", "MEAN_MOTION": 15.21693011, "ECCENTRICITY": 0.0008539, "INCLINATION": 14.9783, "RA_OF_ASC_NODE": 151.5508, "ARG_OF_PERICENTER": 244.3199, "MEAN_ANOMALY": 115.6241, "EPHEMERIS_TYPE": 0, "CLASSIFICATION_TYPE": "U", "NORAD_CAT_ID": 41167, "ELEMENT_SET_NO": 999, "REV_AT_EPOCH": 55386, "BSTAR": 0.00011405, "MEAN_MOTION_DOT": 3.411e-05, "MEAN_MOTION_DDOT": 0}, "tle": {"line1": "1 41167U 15077B   25354.77008937  .00003411  00000+0  11405-3 0  9991", "line2": "2 41167  14.9783 151.5508 0008539 244.3199 115.6241 15.21693011553861"}}, "geometry": {"type": "Point", "coordinates": [154.44739293508707, 1.5528357177844136]}}, {"type": "Feature", "properties": {"norad_id": 41194, "name": "GAOFEN-4", "group": "resource", "lat": -0.0031335603984883682, "lon": -105.0576082399802, "alt_km": 35783.71075436426, "timestamp": "2025-12-21T03:56:50.511873+00:00", "meta": {"OBJECT_NAME": "GAOFEN-4", "OBJECT_ID": "2015-083A", "EPOCH": "2025-12-19T15:27:26.627616", "MEAN_MOTION": 1.00273138, "ECCENTRICITY": 0.0002945, "INCLINATION": 0.1878, "RA_OF_ASC_NODE": 81.7841, "ARG_OF_PERICENTER": 93.4275, "MEAN_ANOMALY": 250.8523, "EPHEMERIS_TYPE": 0, "CLASSIFICATION_TYPE": "U", "NORAD_CAT_ID": 41194, "ELEMENT_SET_NO": 999, "REV_AT_EPOCH": 3672, "BSTAR": 0, "MEAN_MOTION_DOT": -3.11e-06, "MEAN_MOTION_DDOT": 0}, "tle": {"line1": "1 41194U 15083A   25353.64405819 -.00000311  00000+0  00000+0 0  9995", "line2": "2 41194   0.1878  81.7841 0002945  93.4275 250.8523  1.00273138 36722"}}, "geometry": {"type": "Point", "coordinates": [-105.0576082399802, -0.0031335603984883682]}}, {"type": "Feature", "properties": {"norad_id": 41240, "name": "JASON-3", "group": "resource", "lat": 52.224998208771765, "lon": -74.8998058354261, "alt_km": 1310.0362526298568, "timestamp": "2025-12-21T03:56:50.511883+00:00", "meta": {"OBJECT_NAME": "JASON-3", "OBJECT_ID": "2016-002A", "EPOCH": "2025-12-20T19:52:09.275232", "MEAN_MOTION": 12.8762689, "ECCENTRICITY": 0.0007225, "INCLINATION": 66.0399, "RA_OF_ASC_NODE": 140.8196, "ARG_OF_PERICENTER": 271.2919, "MEAN_ANOMALY": 88.7272, "EPHEMERIS_TYPE": 0, "CLASSIFICATION_TYPE": "U", "NORAD_CAT_ID": 41240, "ELEMENT_SET_NO": 999, "REV_AT_EPOCH": 46428, "BSTAR": -1.4453e-05, "MEAN_MOTION_DOT": -6.6e-07, "MEAN_MOTION_DDOT": 0}, "tle": {"line1": "1 41240U 16002A   25354.82788513 -.00000066  00000+0 -14453-4 0  9995", "line2": "2 41240  66.0399 140.8196 0007225 271.2919  88.7272 12.87626890464289"}}, "geometry": {"type": "Point", "coordinates": [-74.8998058354261, 52.224998208771765]}}, {"type": "Feature", "properties": {"norad_id": 41335, "name": "SENTINEL-3A", "group": "resource", "lat": 39.38245726938548, "lon": 52.89733582877399, "alt_km": 799.2270293047686, "timestamp": "2025-12-21T03:56:50.511891+00:00", "meta": {"OBJECT_NAME": "SENTINEL-3A", "OBJECT_ID": "2016-011A", "EPOCH": "2025-12-20T19:20:42.968832", "MEAN_MOTION": 14.26733526, "ECCENTRICITY": 9.06e-05, "INCLINATION": 98.6304, "RA_OF_ASC_NODE": 59.7059, "ARG_OF_PERICENTER": 94.2455, "MEAN_ANOMALY": 265.8829, "EPHEMERIS_TYPE": 0, "CLASSIFICATION_TYPE": "U", "NORAD_CAT_ID": 41335, "ELEMENT_SET_NO": 999, "REV_AT_EPOCH": 51262, "BSTAR": 5.6025e-05, "MEAN_MOTION_DOT": 9.2e-07, "MEAN_MOTION_DDOT": 0}, "tle": {"line1": "1 41335U 16011A   25354.80605288  .00000092  00000+0  56025-4 0  9993", "line2": "2 41335  98.6304  59.7059 0000906  94.2455 265.8829 14.26733526512622"}}, "geometry": {"type": "Point", "coordinates": [52.89733582877399, 39.38245726938548]}}]}